{
  "type": "FeatureCollection",
  "features": [
    {
      "type": "Feature",
      "properties": {
        "norad_id": 41890,
        "name": "CYGFM07",
        "group": "weather",
        "lat": 34.822583721702784,
        "lon": 124.9821633437834,
        "alt_km": 412.8926692845989,
        "timestamp": "2025-12-11T10:53:15.526295+00:00",
        "meta_object_name": "CYGFM07",
        "meta_object_id": "2016-078G",
        "meta_epoch": "2025-12-11T04:17:57.980256",
        "meta_mean_motion": 15.49896476,
        "meta_eccentricity": 0.0009773,
        "meta_inclination": 34.9483,
        "meta_ra_of_asc_node": 31.6847,
        "meta_arg_of_pericenter": 202.3407,
        "meta_mean_anomaly": 157.689,
        "meta_ephemeris_type": 0,
        "meta_classification_type": "U",
        "meta_norad_cat_id": 41890,
        "meta_element_set_no": 999,
        "meta_rev_at_epoch": 49971,
        "meta_bstar": 0.00052095,
        "meta_mean_motion_dot": 0.00030129,
        "meta_mean_motion_ddot": 0,
        "tle_line1": "1 41890U 16078G   25345.17914329  .00030129  00000+0  52095-3 0  9997",
        "tle_line2": "2 41890  34.9483  31.6847 0009773 202.3407 157.6890 15.49896476499713"
      },
      "geometry": {
        "type": "Point",
        "coordinates": [
          124.9821633437834,
          34.822583721702784
        ]
      }
    },
    {
      "type": "Feature",
      "properties": {
        "norad_id": 41891,
        "name": "CYGFM03",
        "group": "weather",
        "lat": -32.64995653184742,
        "lon": -34.785058545623684,
        "alt_km": 420.0395792807449,
        "timestamp": "2025-12-11T10:53:15.526306+00:00",
        "meta_object_name": "CYGFM03",
        "meta_object_id": "2016-078H",
        "meta_epoch": "2025-12-11T05:00:24.833664",
        "meta_mean_motion": 15.49798407,
        "meta_eccentricity": 0.0009092,
        "meta_inclination": 34.9435,
        "meta_ra_of_asc_node": 33.4093,
        "meta_arg_of_pericenter": 189.8697,
        "meta_mean_anomaly": 170.1848,
        "meta_ephemeris_type": 0,
        "meta_classification_type": "U",
        "meta_norad_cat_id": 41891,
        "meta_element_set_no": 999,
        "meta_rev_at_epoch": 49969,
        "meta_bstar": 0.00051515,
        "meta_mean_motion_dot": 0.0002968,
        "meta_mean_motion_ddot": 0,
        "tle_line1": "1 41891U 16078H   25345.20862076  .00029680  00000+0  51515-3 0  9999",
        "tle_line2": "2 41891  34.9435  33.4093 0009092 189.8697 170.1848 15.49798407499693"
      },
      "geometry": {
        "type": "Point",
        "coordinates": [
          -34.785058545623684,
          -32.64995653184742
        ]
      }
    },
    {
      "type": "Feature",
      "properties": {
        "norad_id": 43010,
        "name": "FENGYUN 3D",
        "group": "weather",
        "lat": -77.83583512995257,
        "lon": -1.0016211914202908,
        "alt_km": 833.7456408149719,
        "timestamp": "2025-12-11T10:53:15.526317+00:00",
        "meta_object_name": "FENGYUN 3D",
        "meta_object_id": "2017-072A",
        "meta_epoch": "2025-12-11T04:30:23.518080",
        "meta_mean_motion": 14.1968333,
        "meta_eccentricity": 8.6e-05,
        "meta_inclination": 98.9894,
        "meta_ra_of_asc_node": 311.4746,
        "meta_arg_of_pericenter": 187.421,
        "meta_mean_anomaly": 172.6953,
        "meta_ephemeris_type": 0,
        "meta_classification_type": "U",
        "meta_norad_cat_id": 43010,
        "meta_element_set_no": 999,
        "meta_rev_at_epoch": 41831,
        "meta_bstar": 0.00019586,
        "meta_mean_motion_dot": 3.68e-06,
        "meta_mean_motion_ddot": 0,
        "tle_line1": "1 43010U 17072A   25345.18777220  .00000368  00000+0  19586-3 0  9996",
        "tle_line2": "2 43010  98.9894 311.4746 0000860 187.4210 172.6953 14.19683330418318"
      },
      "geometry": {
        "type": "Point",
        "coordinates": [
          -1.0016211914202908,
          -77.83583512995257
        ]
      }
    },
    {
      "type": "Feature",
      "properties": {
        "norad_id": 43013,
        "name": "NOAA 20 (JPSS-1)",
        "group": "weather",
        "lat": 69.40173479482499,
        "lon": -102.45573390033985,
        "alt_km": 818.7139945798053,
        "timestamp": "2025-12-11T10:53:15.526328+00:00",
        "meta_object_name": "NOAA 20 (JPSS-1)",
        "meta_object_id": "2017-073A",
        "meta_epoch": "2025-12-11T03:47:11.448096",
        "meta_mean_motion": 14.19525028,
        "meta_eccentricity": 0.0002152,
        "meta_inclination": 98.7597,
        "meta_ra_of_asc_node": 281.4718,
        "meta_arg_of_pericenter": 89.4897,
        "meta_mean_anomaly": 270.6526,
        "meta_ephemeris_type": 0,
        "meta_classification_type": "U",
        "meta_norad_cat_id": 43013,
        "meta_element_set_no": 999,
        "meta_rev_at_epoch": 41779,
        "meta_bstar": 0.00010104,
        "meta_mean_motion_dot": 1.69e-06,
        "meta_mean_motion_ddot": 0,
        "tle_line1": "1 43013U 17073A   25345.15777139  .00000169  00000+0  10104-3 0  9992",
        "tle_line2": "2 43013  98.7597 281.4718 0002152  89.4897 270.6526 14.19525028417797"
      },
      "geometry": {
        "type": "Point",
        "coordinates": [
          -102.45573390033985,
          69.40173479482499
        ]
      }
    },
    {
      "type": "Feature",
      "properties": {
        "norad_id": 43226,
        "name": "GOES 17",
        "group": "weather",
        "lat": 0.41568206009618497,
        "lon": 154.19747281463717,
        "alt_km": 35793.63279629933,
        "timestamp": "2025-12-11T10:53:15.526342+00:00",
        "meta_object_name": "GOES 17",
        "meta_object_id": "2018-022A",
        "meta_epoch": "2025-12-11T02:48:46.255392",
        "meta_mean_motion": 1.0027164,
        "meta_eccentricity": 0.0003337,
        "meta_inclination": 0.456,
        "meta_ra_of_asc_node": 89.1253,
        "meta_arg_of_pericenter": 187.5221,
        "meta_mean_anomaly": 116.1333,
        "meta_ephemeris_type": 0,
        "meta_classification_type": "U",
        "meta_norad_cat_id": 43226,
        "meta_element_set_no": 999,
        "meta_rev_at_epoch": 2853,
        "meta_bstar": 0,
        "meta_mean_motion_dot": -1.77e-06,
        "meta_mean_motion_ddot": 0,
        "tle_line1": "1 43226U 18022A   25345.11720203 -.00000177  00000+0  00000+0 0  9999",
        "tle_line2": "2 43226   0.4560  89.1253 0003337 187.5221 116.1333  1.00271640 28531"
      },
      "geometry": {
        "type": "Point",
        "coordinates": [
          154.19747281463717,
          0.41568206009618497
        ]
      }
    },
    {
      "type": "Feature",
      "properties": {
        "norad_id": 43491,
        "name": "FENGYUN 2H",
        "group": "weather",
        "lat": -2.2514382034913756,
        "lon": -36.90283324880444,
        "alt_km": 35783.63132951035,
        "timestamp": "2025-12-11T10:53:15.526355+00:00",
        "meta_object_name": "FENGYUN 2H",
        "meta_object_id": "2018-050A",
        "meta_epoch": "2025-12-11T01:54:12.536928",
        "meta_mean_motion": 1.00271109,
        "meta_eccentricity": 0.0002916,
        "meta_inclination": 2.5468,
        "meta_ra_of_asc_node": 81.3429,
        "meta_arg_of_pericenter": 165.4782,
        "meta_mean_anomaly": 301.137,
        "meta_ephemeris_type": 0,
        "meta_classification_type": "U",
        "meta_norad_cat_id": 43491,
        "meta_element_set_no": 999,
        "meta_rev_at_epoch": 2755,
        "meta_bstar": 0,
        "meta_mean_motion_dot": -1.24e-06,
        "meta_mean_motion_ddot": 0,
        "tle_line1": "1 43491U 18050A   25345.07931177 -.00000124  00000+0  00000+0 0  9995",
        "tle_line2": "2 43491   2.5468  81.3429 0002916 165.4782 301.1370  1.00271109 27551"
      },
      "geometry": {
        "type": "Point",
        "coordinates": [
          -36.90283324880444,
          -2.2514382034913756
        ]
      }
    },
    {
      "type": "Feature",
      "properties": {
        "norad_id": 43689,
        "name": "METOP-C",
        "group": "weather",
        "lat": -23.119828150599343,
        "lon": -140.50215457948477,
        "alt_km": 826.6165833873101,
        "timestamp": "2025-12-11T10:53:15.526367+00:00",
        "meta_object_name": "METOP-C",
        "meta_object_id": "2018-087A",
        "meta_epoch": "2025-12-11T03:10:37.106688",
        "meta_mean_motion": 14.21483137,
        "meta_eccentricity": 0.0001295,
        "meta_inclination": 98.6931,
        "meta_ra_of_asc_node": 42.9268,
        "meta_arg_of_pericenter": 41.2493,
        "meta_mean_anomaly": 318.8782,
        "meta_ephemeris_type": 0,
        "meta_classification_type": "U",
        "meta_norad_cat_id": 43689,
        "meta_element_set_no": 999,
        "meta_rev_at_epoch": 36811,
        "meta_bstar": 0.00011219,
        "meta_mean_motion_dot": 2.02e-06,
        "meta_mean_motion_ddot": 0,
        "tle_line1": "1 43689U 18087A   25345.13237392  .00000202  00000+0  11219-3 0  9993",
        "tle_line2": "2 43689  98.6931  42.9268 0001295  41.2493 318.8782 14.21483137368119"
      },
      "geometry": {
        "type": "Point",
        "coordinates": [
          -140.50215457948477,
          -23.119828150599343
        ]
      }
    }
  ]
}